{
  "type": "FeatureCollection",
  "features": [
    {
      "type": "Feature",
      "properties": {
        "name": "Predio Majes"
      },
      "geometry": {
        "type": "Polygon",
        "coordinates": [[
          [-72.345756692, -16.345591772],
          [-72.333158605, -16.351975256],
          [-72.326476922, -16.340580863],
          [-72.303131424, -16.355006242],
          [-72.284427745, -16.376277865],
          [-72.278561641, -16.389924537],
          [-72.271511379, -16.395613385],
          [-72.308712451, -16.430864713],
          [-72.327482865, -16.429400854],
          [-72.350005885, -16.428889817],
          [-72.351895706, -16.417492523],
          [-72.359990696, -16.413134037],
          [-72.381028893, -16.431822805],
          [-72.405202884, -16.425323619],
          [-72.424308069, -16.413358545],
          [-72.437897387, -16.393988414],
          [-72.454984692, -16.385415891],
          [-72.458312822, -16.378122289],
          [-72.454147770, -16.366533766],
          [-72.446046666, -16.353012406],
          [-72.427659247, -16.332809433],
          [-72.390494933, -16.305568418],
          [-72.350723425, -16.331244735],
          [-72.345756692, -16.345591772]
        ]]
      }
    }
  ]
}