{
  "type": "FeatureCollection",
  "name": "Santa Rita blocks",
  "crs": {
    "type": "name",
    "properties": {
      "name": "urn:ogc:def:crs:OGC:1.3:CRS84"
    }
  },
  "features": [
    {
      "type": "Feature",
      "properties": {
        "name": "Santa Rita - Bloque A",
        "block": "A",
        "vertex_count": 25,
        "source_crs": "EPSG:32718"
      },
      "geometry": {
        "type": "Polygon",
        "coordinates": [
          [
            [
              -72.219609868,
              -16.522898313
            ],
            [
              -72.200490168,
              -16.534733524
            ],
            [
              -72.082277057,
              -16.607843827
            ],
            [
              -72.08228326,
              -16.607972687
            ],
            [
              -72.082495743,
              -16.612387089
            ],
            [
              -72.082618928,
              -16.612406149
            ],
            [
              -72.084182149,
              -16.613131422
            ],
            [
              -72.085070802,
              -16.614344743
            ],
            [
              -72.086131752,
              -16.615086889
            ],
            [
              -72.088761931,
              -16.615553056
            ],
            [
              -72.09367809,
              -16.616827261
            ],
            [
              -72.096302325,
              -16.618649764
            ],
            [
              -72.255201502,
              -16.5745587
            ],
            [
              -72.254735627,
              -16.573503364
            ],
            [
              -72.251291747,
              -16.569565783
            ],
            [
              -72.249199347,
              -16.56574152
            ],
            [
              -72.249284443,
              -16.563908067
            ],
            [
              -72.248381543,
              -16.562657213
            ],
            [
              -72.247000078,
              -16.560102446
            ],
            [
              -72.244298939,
              -16.557214235
            ],
            [
              -72.238851679,
              -16.549762118
            ],
            [
              -72.235498359,
              -16.539450201
            ],
            [
              -72.229063242,
              -16.533620578
            ],
            [
              -72.226064719,
              -16.531445319
            ],
            [
              -72.223742574,
              -16.525759218
            ],
            [
              -72.219609868,
              -16.522898313
            ]
          ]
        ]
      }
    },
    {
      "type": "Feature",
      "properties": {
        "name": "Santa Rita - Bloque B",
        "block": "B",
        "vertex_count": 72,
        "source_crs": "EPSG:32718"
      },
      "geometry": {
        "type": "Polygon",
        "coordinates": [
          [
            [
              -72.255437702,
              -16.575093753
            ],
            [
              -72.186789518,
              -16.594158786
            ],
            [
              -72.202533476,
              -16.625462064
            ],
            [
              -72.205122184,
              -16.625348232
            ],
            [
              -72.206246427,
              -16.62504026
            ],
            [
              -72.207582032,
              -16.624987303
            ],
            [
              -72.20875458,
              -16.624634064
            ],
            [
              -72.210135747,
              -16.624742434
            ],
            [
              -72.211297977,
              -16.625215475
            ],
            [
              -72.21261106,
              -16.625047458
            ],
            [
              -72.213690623,
              -16.624509391
            ],
            [
              -72.215307136,
              -16.624872998
            ],
            [
              -72.217801271,
              -16.627473961
            ],
            [
              -72.219604496,
              -16.628161166
            ],
            [
              -72.220954718,
              -16.62884311
            ],
            [
              -72.221442685,
              -16.629858914
            ],
            [
              -72.221761221,
              -16.631079479
            ],
            [
              -72.222438071,
              -16.632235346
            ],
            [
              -72.22371551,
              -16.633031151
            ],
            [
              -72.225026988,
              -16.633000745
            ],
            [
              -72.226316033,
              -16.632855307
            ],
            [
              -72.227491107,
              -16.632295367
            ],
            [
              -72.228616875,
              -16.631872599
            ],
            [
              -72.22979184,
              -16.631312651
            ],
            [
              -72.230916049,
              -16.631004366
            ],
            [
              -72.232019001,
              -16.630489583
            ],
            [
              -72.233332535,
              -16.630298585
            ],
            [
              -72.2345927,
              -16.63056584
            ],
            [
              -72.237224049,
              -16.631744876
            ],
            [
              -72.238068154,
              -16.632879831
            ],
            [
              -72.239337888,
              -16.63429503
            ],
            [
              -72.240354052,
              -16.635018786
            ],
            [
              -72.241736539,
              -16.6350351
            ],
            [
              -72.242768546,
              -16.634473253
            ],
            [
              -72.24415228,
              -16.634374882
            ],
            [
              -72.246623569,
              -16.635023841
            ],
            [
              -72.247885208,
              -16.635176335
            ],
            [
              -72.249246854,
              -16.634939883
            ],
            [
              -72.250234838,
              -16.63407907
            ],
            [
              -72.250677155,
              -16.63300536
            ],
            [
              -72.250754876,
              -16.63057277
            ],
            [
              -72.250603598,
              -16.629308493
            ],
            [
              -72.250824245,
              -16.626877725
            ],
            [
              -72.251505161,
              -16.625783759
            ],
            [
              -72.252373973,
              -16.624921741
            ],
            [
              -72.253480125,
              -16.624131291
            ],
            [
              -72.254606565,
              -16.623639326
            ],
            [
              -72.257108408,
              -16.623737655
            ],
            [
              -72.258342593,
              -16.624165231
            ],
            [
              -72.26075661,
              -16.625570891
            ],
            [
              -72.263092553,
              -16.625575338
            ],
            [
              -72.263774648,
              -16.624389696
            ],
            [
              -72.264946037,
              -16.624104782
            ],
            [
              -72.267585965,
              -16.624594856
            ],
            [
              -72.268770459,
              -16.625205408
            ],
            [
              -72.271300183,
              -16.625072553
            ],
            [
              -72.273397589,
              -16.62503948
            ],
            [
              -72.274526537,
              -16.624600673
            ],
            [
              -72.275225669,
              -16.62458964
            ],
            [
              -72.276633939,
              -16.625156805
            ],
            [
              -72.278502071,
              -16.627063876
            ],
            [
              -72.279300049,
              -16.627724855
            ],
            [
              -72.280711215,
              -16.628460337
            ],
            [
              -72.282381704,
              -16.629023307
            ],
            [
              -72.284477696,
              -16.628905939
            ],
            [
              -72.282429819,
              -16.622949694
            ],
            [
              -72.278097823,
              -16.615493607
            ],
            [
              -72.27418582,
              -16.604629423
            ],
            [
              -72.268063125,
              -16.597181684
            ],
            [
              -72.265733439,
              -16.592234381
            ],
            [
              -72.262626193,
              -16.586424486
            ],
            [
              -72.256793209,
              -16.57816424
            ],
            [
              -72.255437702,
              -16.575093753
            ]
          ]
        ]
      }
    },
    {
      "type": "Feature",
      "properties": {
        "name": "Santa Rita - Bloque C",
        "block": "C",
        "vertex_count": 23,
        "source_crs": "EPSG:32718"
      },
      "geometry": {
        "type": "Polygon",
        "coordinates": [
          [
            [
              -72.097533879,
              -16.534473204
            ],
            [
              -72.08119292,
              -16.544574638
            ],
            [
              -72.08137957,
              -16.546469714
            ],
            [
              -72.082649283,
              -16.550383759
            ],
            [
              -72.083739586,
              -16.553680103
            ],
            [
              -72.083892138,
              -16.556500399
            ],
            [
              -72.084354268,
              -16.55772754
            ],
            [
              -72.088129626,
              -16.562125297
            ],
            [
              -72.086773996,
              -16.564012724
            ],
            [
              -72.083809026,
              -16.566058088
            ],
            [
              -72.078893416,
              -16.555053054
            ],
            [
              -72.076589781,
              -16.547419759
            ],
            [
              -72.074079342,
              -16.548971345
            ],
            [
              -72.071585726,
              -16.56943267
            ],
            [
              -72.069151278,
              -16.572263602
            ],
            [
              -72.074716417,
              -16.571836772
            ],
            [
              -72.078041478,
              -16.575853652
            ],
            [
              -72.076402209,
              -16.579042212
            ],
            [
              -72.076677769,
              -16.584085448
            ],
            [
              -72.078209464,
              -16.585946106
            ],
            [
              -72.077557867,
              -16.602344355
            ],
            [
              -72.081993689,
              -16.607482622
            ],
            [
              -72.127529707,
              -16.579601486
            ],
            [
              -72.097533879,
              -16.534473204
            ]
          ]
        ]
      }
    }
  ]
}
